;Person;Street;HouseNumber;PostalCode;City;Country
0;LeonBabucke;Eichbusch;1;72138;Kirchentellinsfurt;
1;LeaEbbers;Glienicke;2;71155;Altdorf;(
2;PaulaHaaker;K;G;A;Am;Te
3;BlankaKabuth;Schnecken;5;69151;Neckargemund;
4;OttoIdel;Gemeinsch;3;71706;Markgroningen;
5;BatisteCaba;Glienicke;6;72414;Rangendingen;
6;AmyJaeckel;K6nigshei;2;72519;Veringenstadt;Germany
7;GelPaatz;Ernst-;Lau;26;72555;Metzingen
8;AstridAbdullahu;Walther-;N;1;69439;
9;DominiqueKader;Zinsgutst;36;69469;Weinheim;(
10;PaulinaJahnert;Lohnauer;14;72587;Romerstein;
11;RichardIgler;Wasserman;36;72149;Neustetten;
12;KaariaOberegger;Genossens;64;72227;Egenhausen;
13;WilmaAbdic;Friedland;8;69256;Mauer;(
14;AnnaAbbasi;Neltestra;6;68809;;
15;JodiOberacker;Friedenst;6;72793;Pfullingen;Germany
16;HeikeMachold;Frauenlob;1;72537;;
17;FelinaMachauer;Stienitzs;27;72417;Jungingen;
18;EddaKaak;Genossens;58;72644;Oberboihingen;
19;DonaldCain;Vogelbeer;1;72574;Bad;Urach
20;TristanJachs;Magnusstr;84;72348;Rosenfeld;
21;CarenKaczynski;Newtonstr;1;69251;;Gaiberg
22;JonathanGabelberger;Dammweg;26;72299;;Wornersberg
23;YannisJacqueline;Forsthaus;1;72510;Stetten;am
24;CedrikCabuk;Eigenheim;28;72477;;Schwenningen
25;DiminicCaglar;Radickest;3;72531;Hohenstein;(
26;JaapPackmohr;Alpenrose;4;72224;Ebhausen;Germany
27;BertramBacke;Freystadt;2;72401;;Haigerloch
28;MagdalenaEbenhoh;Otto-;Fran;8;71409;Schwaikheim
29;FriedrichLabisch;Hanselstr;5;71397;;
30;KimDaumler;Lohnauer;25;71111;Waldenbuch;Germany
31;MiloGahler;Helbigstr;2;72581;Dettingen;an
32;lrisMachts;Alpenrose;14;72584;Hulben;Germany
33;BerndLachnitt;Anna-;Segh;8;71737;Kirchberg
34;DirkCaicedo;Thomas-;Mi;1;72555;Metzingen
35;HakanPachner;Am;Adlerg;64;72663;
36;TheresaAbazi;Hoffmanns;2;68794;Oberhausen-;Rheinhausen
37;TabiaHaberbosch;Kiehnwerd;45;69434;;
38;SarahHaasz;Wilhelm-;O;29;69190;
39;ZuriIbisevic;Florian-;G;6;71287;Weissach
40;RaphaelIgelbrink;K;G;A;Am;Te
41;CarlaAbbassi;Bardorfer;51;69151;Neckargemund;
42;AamuAben;Radickest;25;71131;;Jettingen
43;JulesPackeiser;Hallberge;6;72827;Wannweil;
44;FriedaJager;Bardorfer;45;72535;Heroldstatt;
45;HugoEble;Erich-;Thi;2;72144;
46;JulianBacha;Heidekamp;2;72160;Horb;am
47;AvaKabisch;Hollstra;B;5;68766;Hockenheim
48;XaniIbenthal;Hackenber;26;71159;Motzingen;Germany
49;PeterBachhofer;Arndtstra;36;72186;Empfingen;
50;MeteoSaadi;Bernstadt;24;72519;Veringenstadt;
51;ArzuKablitz;Nipkowstr;9;68794;Oberhausen-;Rheinhausen
52;RadostHaarseim;Rudower;C;6;68766;
53;HelenaDabrowski;Gondeker;3;68753;Waghdusel;
54;GabrielleMacherius;Barbara-;M;9;72511;
55;JakobGabcke;Berberitz;25;72296;;Schopfloch
56;LinasQorraj;Bardorfer;12;72474;Winterlingen;
57;FalkoPaap;Wasserman;26;72525;Munsingen;(
58;VioletaIannelli;Hanselstr;9;71116;;Gartringen
59;LukeQuabeck;Genossens;55;72488;Sigmaringen;
60;DewisMabrouk;Schnecken;6;72299;Wornersberg;
61;NiklasBabl;Baumschul;7;71737;Kirchberg;an
62;LizEbelt;Glienicke;5;71296;Heimsheim;
63;MattiIborg;Hackenber;3;71299;Wimsheim;
64;JeanDaehre;Gellertst;8;69257;Wiesenbach;(
65;AsisBachman;Husstra;Bbe;26;72250;Freudenstadt
66;AmyAbaci;Arndtstra;25;;68549;
67;ChristophMaack;Hollstra;B;48;72160;Horb
68;VictoriaIannello;K6nigshei;58;71120;;Grafenau
69;LiamBachinger;Bardorfer;25;72202;Nagold;
70;SarahHabeck;Agavenste;48;69226;Nu;Bloch
71;MareenEbenau;Helbigstr;4;71299;Wimsheim;
72;HannoEbisch;Wilhelm-;O;9;72141;
73;AdrianaAbeling;Kdpenicke;1;71106;;Magstadt
74;AugustaKaba;Anna-;Segh;25;72663;
75;FelicitasCalakovic;Weerthstr;47;72664;Kohlberg;(
76;DagMaa;Ben;Moissistr;1;72226;Simmersfeld
77;EvaJahn;Hackenber;1;72581;Dettingen;an
78;JonathanPackroff;Baumschul;7;72226;Simmersfeld;
79;LutzGaebler;Bernstadt;9;72531;Hohenstein;(
80;DorotheeBabaei;Pfingstbe;9;71563;Affalterbach;
81;lgorGabauer;Heidemuhl;26;72224;Ebhausen;
82;GeoffreyEberstein;Rudower;C;3;71720;Oberstenfeld
83;CemCada;Glienicke;29;72505;;Krauchenwies
84;KiaraOberdick;Lohnauer;8;72827;Wannweil;
85;KevinGach;Husstra;Be;9;72469;Me
86;JeremyGabriela;Arndtstra;9;72369;Zimmern;unter
87;CainanMaak;Eigenheim;47;72181;Starzach;
88;LottaOberhoff;Gemeinsch;1;72362;Nusplingen;
89;ViduJacksteit;K;G;A;Holun;98
90;WalterJacobi;Bodelschw;26;72477;Schwenningen;(
91;HenryBachelier;Hanselstr;95;72175;Dornhan;
92;NeoIcen;Friedland;9;71554;Weissach;im
93;ArielleAbels;Nipkowstr;36;71120;;
94;PamirIdris;Moissistr;1;71729;Erdmannhausen;
95;ChayaKadasch;Rudower;C;45;69257;
96;QuentinLabs;Bohrauer;98;71543;Wustenrot;
97;BeatBack;;Buchnerwe;1;72379;
98;RadiIglesias;Wunschelb;14;72160;Horb;am
99;AkeBachofer;Genossens;26;72355;Schomberg;(
100;IvetteDada;Ekkehards;28;69181;Leimen;(
101;JakobPackheiser;Kiehnwerd;3;72221;Haiterbach;
102;LucyOberhammer;Anna-;Segh;27;72351;Geislingen
103;AlbaKabaca;Bernstadt;24;72664;;Kohlberg
104;HelenDachs;K;G;A;Holun;8
105;BiancaKabus;Rosenweg;29;68809;Neulu;Bheim
106;RainaHaarmeyer;Platz;der;9;68723;Schwetzingen
107;EbbaBabel;Bergaustr;98;71679;;Asperg
108;JaquelineDahne;Florian-;G;4;69254;Malsch
109;lanGaal;Frauenlob;58;72213;Altensteig;
110;CedrikMaag;K6dpenicke;9;72172;Sulz;am
111;KaarleGaby;Hoffmanns;28;72419;;Neufra
112;LinusLabrenz;Arndtstra;9;71540;;Murrhardt
113;LuziaLaake;Dornbrunn;61;71131;;Jettingen
114;MayaKaaden;Friedenst;48;72636;;Frickenhausen
115;PhilIding;Helbigstr;8;71720;Oberstenfeld;Germany
116;BaldurLachmuth;Lohnauer;45;71729;;Erdmannhausen
117;AllessandroLacheta;Hackenber;1;71711;Steinheim;an
118;OlivierIckstadt;Moissistr;25;71579;Spiegelberg;
119;LeonQelaj;Husstra;Be;15;72417;Jungingen
120;FabianCalabrese;Stienitzs;48;72658;Bempflingen;
121;LucyEaton;Eigenheim;62;71139;;
122;OnurIcli;Walther-;N;48;71679;Asperg
123;HendrikEbigt;Zinsgutst;3;72131;Ofterdingen;
124;JanGabbert;Baumschul;12;72250;Freudenstadt;
125;FabiaCalame;Zinsgutst;26;72666;Neckartailfingen;
126;HendrikPachali;Vimystra;B;1;72636;Frickenhausen
127;DjamilaBaaz;Magnusstr;6;71549;Auenwald;
128;LizOberlechner;Freystadt;3;72411;Bodelshausen;Germany
129;FabriziusCakolli;Seidenbau;14;72655;Altdorf;bei
130;DanielMaasch;Handjerys;12;72213;Altensteig;
131;PatrickIdinger;Hollstra;B;9;71723;Gro
132;AamenahKabelka;Gemeinsch;6;68723;Oftersheim;
133;HannaMachnik;K;G;A;Einig;2
134;NadineGaens;Walther-;N;84;72587;
135;AbigailKabatek;Walther-;N;3;68526;Ladenburg
136;LauraOberhollenzer;Glienicke;3;72364;;
137;MareenOberleitner;Gemeinsch;45;72415;;Grosselfingen
138;MarianneEber;Rosenweg;51;71540;;Murrhardt
139;EmelyAbadi;Bohrauer;6;68723;Oftersheim;
140;FritziMacher;Erich-;Thi;7;72505;Krauchenwies
141;CamernMaahs;Moissistr;58;72175;;Dornhan
142;BastianLacker;Friedland;36;72141;Walddorfhaslach;
143;LindaEbeler;Freystadt;25;71282;Hemmingen;(
144;ToddJacimovic;Erich-;Thi;6;72355;Schomberg
145;CelineKadam;Platz;der;3;69254;Malsch
146;OscarIckes;Helbigstr;5;71573;Allmersbach;im
147;JoanaObendorfer;Adlergest;23;72663;;Gro
148;GelEbersmann;Platz;der;8;71711;Murr
149;kikiDaether;Genossens;1;71083;Herrenberg;
150;SamuelJaax;Am;Studio;48;72181;
151;WillJacobeit;Berberitz;27;72475;Bitz;
152;CyranusMaas;Gemeinsch;2;72189;Vohringen;(
153;DariusCagdas;Walther-;N;6;72517;Sigmaringendorf
154;VolkerJacko;Ernststra;9;72393;Burladingen;
155;HannesPacha;Silberber;6;72589;Westerheim;(
156;FriedaAbassi;Gellertst;4;68766;Hockenheim;
157;VolkerJackson;Hallberge;28;72414;Rangendingen;
158;JaakovPadovani;Hanselstr;95;72358;Dormettingen;
159;HardyPachinger;Wilhelm-;O;51;72657;Altenriet
160;LaureenEbeling;Friedland;6;71287;Weissach;
161;MarlonIbler;Gellertst;8;71296;Heimsheim;
162;LunaEbel;Eigenheim;23;71277;;Rutesheim
163;laraMachunze;Berberitz;48;72587;Romerstein;Germany
164;ChristophCabrera;Walther-;N;1;72475;
165;BerenikeKaap;Hauptweg;47;72654;Neckartenzlingen;
166;LeonieOberhauser;Eigenheim;48;72358;Dormettingen;
167;NiklasIbraimi;Neltestra;51;71404;Korb;
168;RabiHaas;Seidenbau;51;68775;Ketsch;Germany
169;CarlCaduff;Handjerys;5;72510;Stetten;am
170;JulianLabella;Forsthaus;8;71297;Monsheim;
171;TimLabes;Heidekamp;65;71384;Weinstadt;Germany
172;LucaGadde;Gellertst;26;72501;;
173;CalebLackerbauer;Gemeinsch;14;72144;Du;Blingen
174;LuisLaban;Dammweg;1;71282;;Hemmingen
175;FadyOberndorfer;Thomas-;Mu;62;72517;Sigmaringendorf
176;UlrikeHaberhauer;Eichbusch;84;69502;Hemsbach;(
177;CharlotteKaczmarek;Am;Studio;8;69242;Muhlhausen
178;FadyEberl;Wunschelb;98;71573;Allmersbach;im
179;QuirinLabonte;Abtstra;Be;1;71409;Schwaikheim
180;SabineHabegger;Bergaustr;1;69242;Muhlhausen;(
181;SusanneAbdellaoui;Bernstadt;26;69250;;Schonau
182;PhilippLaatz;Baumschul;6;71263;Weil;der
183;Zoebili;Neltestra;84;71277;Rutesheim;Germany
184;HeikoEbing;Carl-;Sche;6;72135;Dettenhausen
185;DaphneKade;Stienitzs;8;69429;Waldbrunn;(
186;HagarEbner;Am;Adlerg;1;72149;
187;FritzEberle;Dorpfelds;65;71576;Burgstetten;Germany
188;EnnaLaaber;Am;Adlerg;58;71101;
189;CarolineBaal;Platz;der;25;71297;Monsheim
190;HaukePacht;Behringst;9;72667;Schlaitdorf;
191;iJill;Dabritz;Hanselstr;26;69231;Rauenberg
